CCSDS_OMM_VERS = 2.0
CREATION_DATE  = 
ORIGINATOR     = 

OBJECT_NAME    = COSMOS 1933
OBJECT_ID      = 1988-020A
CENTER_NAME    = EARTH
REF_FRAME      = TEME
TIME_SYSTEM    = UTC
MEAN_ELEMENT_THEORY = SGP/SGP4

EPOCH          = 2026-01-11T13:29:58.746336
MEAN_MOTION    = 15.17426492
ECCENTRICITY   = .00059798
INCLINATION    = 82.5146
RA_OF_ASC_NODE = 307.4084
ARG_OF_PERICENTER = 53.8152
MEAN_ANOMALY   = 306.3634

EPHEMERIS_TYPE = 0
CLASSIFICATION_TYPE = U
NORAD_CAT_ID   = 18958
ELEMENT_SET_NO = 999
REV_AT_EPOCH   = 4156
BSTAR          = .25830889E-3
MEAN_MOTION_DOT = .5197E-4
MEAN_MOTION_DDOT = 0

CCSDS_OMM_VERS = 2.0
CREATION_DATE  = 
ORIGINATOR     = 

OBJECT_NAME    = SL-3 R/B
OBJECT_ID      = 1988-032B
CENTER_NAME    = EARTH
REF_FRAME      = TEME
TIME_SYSTEM    = UTC
MEAN_ELEMENT_THEORY = SGP/SGP4

EPOCH          = 2026-01-11T13:44:46.049280
MEAN_MOTION    = 15.19110776
ECCENTRICITY   = .00283771
INCLINATION    = 97.5112
RA_OF_ASC_NODE = 355.0987
ARG_OF_PERICENTER = 74.2488
MEAN_ANOMALY   = 286.1873

EPHEMERIS_TYPE = 0
CLASSIFICATION_TYPE = U
NORAD_CAT_ID   = 19046
ELEMENT_SET_NO = 999
REV_AT_EPOCH   = 4343
BSTAR          = .27024771E-3
MEAN_MOTION_DOT = .5663E-4
MEAN_MOTION_DDOT = 0

CCSDS_OMM_VERS = 2.0
CREATION_DATE  = 
ORIGINATOR     = 

OBJECT_NAME    = SL-16 R/B
OBJECT_ID      = 1988-039B
CENTER_NAME    = EARTH
REF_FRAME      = TEME
TIME_SYSTEM    = UTC
MEAN_ELEMENT_THEORY = SGP/SGP4

EPOCH          = 2026-01-11T13:16:23.757600
MEAN_MOTION    = 14.19604524
ECCENTRICITY   = .00196698
INCLINATION    = 71.0132
RA_OF_ASC_NODE = 189.3612
ARG_OF_PERICENTER = 65.1295
MEAN_ANOMALY   = 295.1873

EPHEMERIS_TYPE = 0
CLASSIFICATION_TYPE = U
NORAD_CAT_ID   = 19120
ELEMENT_SET_NO = 999
REV_AT_EPOCH   = 95027
BSTAR          = .1171148E-4
MEAN_MOTION_DOT = -.23E-6
MEAN_MOTION_DDOT = 0

CCSDS_OMM_VERS = 2.0
CREATION_DATE  = 
ORIGINATOR     = 

OBJECT_NAME    = COSMOS 1953
OBJECT_ID      = 1988-050A
CENTER_NAME    = EARTH
REF_FRAME      = TEME
TIME_SYSTEM    = UTC
MEAN_ELEMENT_THEORY = SGP/SGP4

EPOCH          = 2026-01-11T15:34:31.784736
MEAN_MOTION    = 15.27345194
ECCENTRICITY   = .00111244
INCLINATION    = 82.5073
RA_OF_ASC_NODE = 215.5604
ARG_OF_PERICENTER = 331.8447
MEAN_ANOMALY   = 28.2188

EPHEMERIS_TYPE = 0
CLASSIFICATION_TYPE = U
NORAD_CAT_ID   = 19210
ELEMENT_SET_NO = 999
REV_AT_EPOCH   = 2907
BSTAR          = .26340853E-3
MEAN_MOTION_DOT = .7096E-4
MEAN_MOTION_DDOT = 0

CCSDS_OMM_VERS = 2.0
CREATION_DATE  = 
ORIGINATOR     = 

OBJECT_NAME    = SL-8 R/B
OBJECT_ID      = 1988-053B
CENTER_NAME    = EARTH
REF_FRAME      = TEME
TIME_SYSTEM    = UTC
MEAN_ELEMENT_THEORY = SGP/SGP4

EPOCH          = 2026-01-11T13:49:32.556000
MEAN_MOTION    = 14.38879316
ECCENTRICITY   = .00192522
INCLINATION    = 74.0453
RA_OF_ASC_NODE = 217.7306
ARG_OF_PERICENTER = 50.7911
MEAN_ANOMALY   = 11.2847

EPHEMERIS_TYPE = 0
CLASSIFICATION_TYPE = U
NORAD_CAT_ID   = 19257
ELEMENT_SET_NO = 999
REV_AT_EPOCH   = 96838
BSTAR          = .51762549E-4
MEAN_MOTION_DOT = .133E-5
MEAN_MOTION_DDOT = 0

CCSDS_OMM_VERS = 2.0
CREATION_DATE  = 
ORIGINATOR     = 

OBJECT_NAME    = COSMOS 1975
OBJECT_ID      = 1988-093A
CENTER_NAME    = EARTH
REF_FRAME      = TEME
TIME_SYSTEM    = UTC
MEAN_ELEMENT_THEORY = SGP/SGP4

EPOCH          = 2026-01-11T12:53:28.272192
MEAN_MOTION    = 15.26972336
ECCENTRICITY   = .00119985
INCLINATION    = 82.5199
RA_OF_ASC_NODE = 174.9872
ARG_OF_PERICENTER = 17.5374
MEAN_ANOMALY   = 342.6277

EPHEMERIS_TYPE = 0
CLASSIFICATION_TYPE = U
NORAD_CAT_ID   = 19573
ELEMENT_SET_NO = 999
REV_AT_EPOCH   = 1068
BSTAR          = .29468136E-3
MEAN_MOTION_DOT = .7849E-4
MEAN_MOTION_DDOT = 0

CCSDS_OMM_VERS = 2.0
CREATION_DATE  = 
ORIGINATOR     = 

OBJECT_NAME    = SL-14 R/B
OBJECT_ID      = 1988-093B
CENTER_NAME    = EARTH
REF_FRAME      = TEME
TIME_SYSTEM    = UTC
MEAN_ELEMENT_THEORY = SGP/SGP4

EPOCH          = 2026-01-11T11:16:18.038208
MEAN_MOTION    = 14.85589180
ECCENTRICITY   = .00196821
INCLINATION    = 82.5314
RA_OF_ASC_NODE = 95.7687
ARG_OF_PERICENTER = 224.5993
MEAN_ANOMALY   = 145.9781

EPHEMERIS_TYPE = 0
CLASSIFICATION_TYPE = U
NORAD_CAT_ID   = 19574
ELEMENT_SET_NO = 999
REV_AT_EPOCH   = 99254
BSTAR          = .57463285E-4
MEAN_MOTION_DOT = .523E-5
MEAN_MOTION_DDOT = 0

CCSDS_OMM_VERS = 2.0
CREATION_DATE  = 
ORIGINATOR     = 

OBJECT_NAME    = SL-16 R/B
OBJECT_ID      = 1988-102B
CENTER_NAME    = EARTH
REF_FRAME      = TEME
TIME_SYSTEM    = UTC
MEAN_ELEMENT_THEORY = SGP/SGP4

EPOCH          = 2026-01-11T09:47:25.315296
MEAN_MOTION    = 14.16141997
ECCENTRICITY   = .00119849
INCLINATION    = 70.9993
RA_OF_ASC_NODE = 272.0204
ARG_OF_PERICENTER = 99.8790
MEAN_ANOMALY   = 260.3687

EPHEMERIS_TYPE = 0
CLASSIFICATION_TYPE = U
NORAD_CAT_ID   = 19650
ELEMENT_SET_NO = 999
REV_AT_EPOCH   = 91878
BSTAR          = .9289759E-4
MEAN_MOTION_DOT = .136E-5
MEAN_MOTION_DDOT = 0

CCSDS_OMM_VERS = 2.0
CREATION_DATE  = 
ORIGINATOR     = 

OBJECT_NAME    = INTERCOSMOS 24
OBJECT_ID      = 1989-080A
CENTER_NAME    = EARTH
REF_FRAME      = TEME
TIME_SYSTEM    = UTC
MEAN_ELEMENT_THEORY = SGP/SGP4

EPOCH          = 2026-01-11T10:55:11.612928
MEAN_MOTION    = 12.59484783
ECCENTRICITY   = .11889886
INCLINATION    = 82.6076
RA_OF_ASC_NODE = 141.6369
ARG_OF_PERICENTER = 65.6224
MEAN_ANOMALY   = 306.4238

EPHEMERIS_TYPE = 0
CLASSIFICATION_TYPE = U
NORAD_CAT_ID   = 20261
ELEMENT_SET_NO = 999
REV_AT_EPOCH   = 65959
BSTAR          = .1352707E-3
MEAN_MOTION_DOT = .49E-5
MEAN_MOTION_DDOT = 0

CCSDS_OMM_VERS = 2.0
CREATION_DATE  = 
ORIGINATOR     = 

OBJECT_NAME    = SL-14 R/B
OBJECT_ID      = 1989-080C
CENTER_NAME    = EARTH
REF_FRAME      = TEME
TIME_SYSTEM    = UTC
MEAN_ELEMENT_THEORY = SGP/SGP4

EPOCH          = 2026-01-11T14:03:59.645664
MEAN_MOTION    = 12.50437175
ECCENTRICITY   = .12298739
INCLINATION    = 82.5909
RA_OF_ASC_NODE = 209.8554
ARG_OF_PERICENTER = 315.3696
MEAN_ANOMALY   = 35.4505

EPHEMERIS_TYPE = 0
CLASSIFICATION_TYPE = U
NORAD_CAT_ID   = 20262
ELEMENT_SET_NO = 999
REV_AT_EPOCH   = 65301
BSTAR          = .77272308E-4
MEAN_MOTION_DOT = .258E-5
MEAN_MOTION_DDOT = 0

CCSDS_OMM_VERS = 2.0
CREATION_DATE  = 
ORIGINATOR     = 

OBJECT_NAME    = DELTA 1 R/B
OBJECT_ID      = 1989-089B
CENTER_NAME    = EARTH
REF_FRAME      = TEME
TIME_SYSTEM    = UTC
MEAN_ELEMENT_THEORY = SGP/SGP4

EPOCH          = 2026-01-11T13:50:16.304640
MEAN_MOTION    = 14.50603673
ECCENTRICITY   = .00678376
INCLINATION    = 97.0736
RA_OF_ASC_NODE = 228.0838
ARG_OF_PERICENTER = 303.9382
MEAN_ANOMALY   = 55.5378

EPHEMERIS_TYPE = 0
CLASSIFICATION_TYPE = U
NORAD_CAT_ID   = 20323
ELEMENT_SET_NO = 999
REV_AT_EPOCH   = 88745
BSTAR          = .11085158E-3
MEAN_MOTION_DOT = .411E-5
MEAN_MOTION_DDOT = 0

CCSDS_OMM_VERS = 2.0
CREATION_DATE  = 
ORIGINATOR     = 

OBJECT_NAME    = ARIANE 40 R/B
OBJECT_ID      = 1990-005H
CENTER_NAME    = EARTH
REF_FRAME      = TEME
TIME_SYSTEM    = UTC
MEAN_ELEMENT_THEORY = SGP/SGP4

EPOCH          = 2026-01-11T09:54:52.034400
MEAN_MOTION    = 14.39824472
ECCENTRICITY   = .00103979
INCLINATION    = 98.3200
RA_OF_ASC_NODE = 73.7466
ARG_OF_PERICENTER = 23.7001
MEAN_ANOMALY   = 336.4664

EPHEMERIS_TYPE = 0
CLASSIFICATION_TYPE = U
NORAD_CAT_ID   = 20443
ELEMENT_SET_NO = 999
REV_AT_EPOCH   = 88456
BSTAR          = .10491724E-3
MEAN_MOTION_DOT = .287E-5
MEAN_MOTION_DDOT = 0

