COSMOS 1933             
1 18958U 88020A   26011.56248549  .00005197  00000+0  25831-3 0  9995
2 18958  82.5146 307.4084 0005979  53.8152 306.3634 15.17426492 41561
SL-3 R/B                
1 19046U 88032B   26011.57275520  .00005663  00000+0  27025-3 0  9992
2 19046  97.5112 355.0987 0028377  74.2488 286.1873 15.19110776 43431
SL-16 R/B               
1 19120U 88039B   26011.55305275 -.00000023  00000+0  11711-4 0  9993
2 19120  71.0132 189.3612 0019669  65.1295 295.1873 14.19604524950272
COSMOS 1953             
1 19210U 88050A   26011.64897899  .00007096  00000+0  26341-3 0  9994
2 19210  82.5073 215.5604 0011124 331.8447  28.2188 15.27345194 29070
SL-8 R/B                
1 19257U 88053B   26011.57607125  .00000133  00000+0  51763-4 0  9993
2 19257  74.0453 217.7306 0019252  50.7911  11.2847 14.38879316968384
COSMOS 1975             
1 19573U 88093A   26011.53713278  .00007849  00000+0  29468-3 0  9998
2 19573  82.5199 174.9872 0011998  17.5374 342.6277 15.26972336 10684
SL-14 R/B               
1 19574U 88093B   26011.46965322  .00000523  00000+0  57463-4 0  9999
2 19574  82.5314  95.7687 0019682 224.5993 145.9781 14.85589180992546
SL-16 R/B               
1 19650U 88102B   26011.40793189  .00000136  00000+0  92898-4 0  9990
2 19650  70.9993 272.0204 0011984  99.8790 260.3687 14.16141997918780
INTERCOSMOS 24          
1 20261U 89080A   26011.45499552  .00000490  00000+0  13527-3 0  9992
2 20261  82.6076 141.6369 1188988  65.6224 306.4238 12.59484783659591
SL-14 R/B               
1 20262U 89080C   26011.58610701  .00000258  00000+0  77272-4 0  9998
2 20262  82.5909 209.8554 1229873 315.3696  35.4505 12.50437175653017
DELTA 1 R/B             
1 20323U 89089B   26011.57657760  .00000411  00000+0  11085-3 0  9990
2 20323  97.0736 228.0838 0067837 303.9382  55.5378 14.50603673887454
ARIANE 40 R/B           
1 20443U 90005H   26011.41310225  .00000287  00000+0  10492-3 0  9990
2 20443  98.3200  73.7466 0010397  23.7001 336.4664 14.39824472884560
